<?xml version="1.0" encoding="UTF-8"?>
<gpx creator="TravelPlanner" version="1.1" xmlns="http://www.topografix.com/GPX/1/1" xmlns:xsi="http://www.w3.org/2001/XMLSchema-instance" xsi:schemaLocation="http://www.topografix.com/GPX/1/1 http://www.topografix.com/GPX/1/1/gpx.xsd">
  <metadata>
    <name>Laguna Torre from El Chaltén (out and back)</name>
    <desc>Trail geometry: "Senda a Laguna Torre" and "Camino al Mirador Maestri" from OpenStreetMap, © OpenStreetMap contributors, available under the Open Database License (ODbL 1.0). Elevations: Copernicus DEM GLO-90 via the Open-Meteo Elevation API, smoothed over ±100 m. Main track: trailhead to Mirador Laguna Torre and back by the same path. Route "Mirador Maestri" is the optional extension along the moraine (one way from the lake viewpoint).</desc>
    <copyright author="OpenStreetMap contributors"><license>https://opendatacommons.org/licenses/odbl/1-0/</license></copyright>
    <link href="https://www.openstreetmap.org/copyright"><text>© OpenStreetMap contributors</text></link>
  </metadata>
  <wpt lat="-49.331287" lon="-72.894717"><ele>421.8</ele><name>Laguna Torre trailhead</name></wpt>
  <wpt lat="-49.332777" lon="-72.927100"><ele>624.3</ele><name>Mirador Cerro Torre</name></wpt>
  <wpt lat="-49.330103" lon="-72.988961"><ele>638.7</ele><name>Mirador Laguna Torre</name></wpt>
  <wpt lat="-49.318198" lon="-73.001757"><ele>821.6</ele><name>Mirador Maestri (optional extension)</name></wpt>
  <rte><name>Optional: Mirador Maestri extension</name>
    <rtept lat="-49.330056" lon="-72.988823"><ele>638.7</ele></rtept>
    <rtept lat="-49.329599" lon="-72.988208"><ele>641.9</ele></rtept>
    <rtept lat="-49.329208" lon="-72.987875"><ele>643.5</ele></rtept>
    <rtept lat="-49.328432" lon="-72.987745"><ele>654.1</ele></rtept>
    <rtept lat="-49.328068" lon="-72.987887"><ele>661.1</ele></rtept>
    <rtept lat="-49.327552" lon="-72.988301"><ele>668.0</ele></rtept>
    <rtept lat="-49.327354" lon="-72.988333"><ele>669.4</ele></rtept>
    <rtept lat="-49.326787" lon="-72.988726"><ele>677.3</ele></rtept>
    <rtept lat="-49.326333" lon="-72.988619"><ele>686.7</ele></rtept>
    <rtept lat="-49.326216" lon="-72.988833"><ele>688.4</ele></rtept>
    <rtept lat="-49.325934" lon="-72.989075"><ele>689.5</ele></rtept>
    <rtept lat="-49.325718" lon="-72.989154"><ele>689.6</ele></rtept>
    <rtept lat="-49.325448" lon="-72.989481"><ele>690.2</ele></rtept>
    <rtept lat="-49.324937" lon="-72.989420"><ele>694.4</ele></rtept>
    <rtept lat="-49.324765" lon="-72.989506"><ele>695.9</ele></rtept>
    <rtept lat="-49.323582" lon="-72.991158"><ele>701.4</ele></rtept>
    <rtept lat="-49.323088" lon="-72.991505"><ele>704.7</ele></rtept>
    <rtept lat="-49.322687" lon="-72.992255"><ele>712.8</ele></rtept>
    <rtept lat="-49.321979" lon="-72.993002"><ele>717.3</ele></rtept>
    <rtept lat="-49.321471" lon="-72.993995"><ele>716.2</ele></rtept>
    <rtept lat="-49.320918" lon="-72.994541"><ele>719.8</ele></rtept>
    <rtept lat="-49.320275" lon="-72.997015"><ele>738.2</ele></rtept>
    <rtept lat="-49.319781" lon="-72.998156"><ele>760.9</ele></rtept>
    <rtept lat="-49.319713" lon="-72.999038"><ele>760.5</ele></rtept>
    <rtept lat="-49.319472" lon="-72.999294"><ele>758.7</ele></rtept>
    <rtept lat="-49.319391" lon="-72.999526"><ele>759.6</ele></rtept>
    <rtept lat="-49.319274" lon="-72.999601"><ele>761.2</ele></rtept>
    <rtept lat="-49.318982" lon="-73.000501"><ele>785.5</ele></rtept>
    <rtept lat="-49.318804" lon="-73.000777"><ele>794.4</ele></rtept>
    <rtept lat="-49.318575" lon="-73.000919"><ele>799.4</ele></rtept>
    <rtept lat="-49.318021" lon="-73.001969"><ele>821.6</ele></rtept>
  </rte>
  <trk>
    <name>Laguna Torre (out and back)</name>
    <trkseg>
      <trkpt lat="-49.331276" lon="-72.894678"><ele>421.8</ele></trkpt>
      <trkpt lat="-49.331381" lon="-72.895220"><ele>430.2</ele></trkpt>
      <trkpt lat="-49.331752" lon="-72.895959"><ele>446.7</ele></trkpt>
      <trkpt lat="-49.331747" lon="-72.896525"><ele>450.8</ele></trkpt>
      <trkpt lat="-49.331971" lon="-72.897246"><ele>451.9</ele></trkpt>
      <trkpt lat="-49.332285" lon="-72.897908"><ele>455.1</ele></trkpt>
      <trkpt lat="-49.333018" lon="-72.898777"><ele>465.3</ele></trkpt>
      <trkpt lat="-49.333068" lon="-72.899046"><ele>465.6</ele></trkpt>
      <trkpt lat="-49.333536" lon="-72.899304"><ele>464.4</ele></trkpt>
      <trkpt lat="-49.333592" lon="-72.899450"><ele>464.1</ele></trkpt>
      <trkpt lat="-49.334000" lon="-72.899753"><ele>462.5</ele></trkpt>
      <trkpt lat="-49.334190" lon="-72.900074"><ele>461.1</ele></trkpt>
      <trkpt lat="-49.334325" lon="-72.900132"><ele>460.4</ele></trkpt>
      <trkpt lat="-49.334483" lon="-72.900504"><ele>460.6</ele></trkpt>
      <trkpt lat="-49.334661" lon="-72.900639"><ele>462.3</ele></trkpt>
      <trkpt lat="-49.334690" lon="-72.900815"><ele>464.0</ele></trkpt>
      <trkpt lat="-49.334874" lon="-72.901054"><ele>469.8</ele></trkpt>
      <trkpt lat="-49.335480" lon="-72.901416"><ele>480.7</ele></trkpt>
      <trkpt lat="-49.335660" lon="-72.901630"><ele>483.6</ele></trkpt>
      <trkpt lat="-49.336171" lon="-72.902795"><ele>496.9</ele></trkpt>
      <trkpt lat="-49.336192" lon="-72.902961"><ele>497.5</ele></trkpt>
      <trkpt lat="-49.336066" lon="-72.903555"><ele>499.5</ele></trkpt>
      <trkpt lat="-49.336118" lon="-72.903691"><ele>499.5</ele></trkpt>
      <trkpt lat="-49.335957" lon="-72.903708"><ele>499.2</ele></trkpt>
      <trkpt lat="-49.336061" lon="-72.903818"><ele>498.9</ele></trkpt>
      <trkpt lat="-49.336100" lon="-72.904349"><ele>497.3</ele></trkpt>
      <trkpt lat="-49.335992" lon="-72.904664"><ele>497.2</ele></trkpt>
      <trkpt lat="-49.335640" lon="-72.905202"><ele>499.6</ele></trkpt>
      <trkpt lat="-49.335348" lon="-72.906231"><ele>497.0</ele></trkpt>
      <trkpt lat="-49.335342" lon="-72.906625"><ele>495.0</ele></trkpt>
      <trkpt lat="-49.335244" lon="-72.906885"><ele>494.1</ele></trkpt>
      <trkpt lat="-49.334971" lon="-72.907314"><ele>495.4</ele></trkpt>
      <trkpt lat="-49.334792" lon="-72.907462"><ele>496.0</ele></trkpt>
      <trkpt lat="-49.334639" lon="-72.907747"><ele>496.1</ele></trkpt>
      <trkpt lat="-49.334531" lon="-72.908151"><ele>497.6</ele></trkpt>
      <trkpt lat="-49.334391" lon="-72.908118"><ele>499.1</ele></trkpt>
      <trkpt lat="-49.333894" lon="-72.908531"><ele>509.9</ele></trkpt>
      <trkpt lat="-49.333885" lon="-72.908720"><ele>512.5</ele></trkpt>
      <trkpt lat="-49.333644" lon="-72.909304"><ele>521.1</ele></trkpt>
      <trkpt lat="-49.333700" lon="-72.909429"><ele>523.1</ele></trkpt>
      <trkpt lat="-49.333631" lon="-72.909562"><ele>525.3</ele></trkpt>
      <trkpt lat="-49.333694" lon="-72.909907"><ele>530.5</ele></trkpt>
      <trkpt lat="-49.333691" lon="-72.910687"><ele>542.5</ele></trkpt>
      <trkpt lat="-49.334002" lon="-72.911582"><ele>546.5</ele></trkpt>
      <trkpt lat="-49.333958" lon="-72.912575"><ele>534.2</ele></trkpt>
      <trkpt lat="-49.333370" lon="-72.913528"><ele>527.3</ele></trkpt>
      <trkpt lat="-49.333202" lon="-72.913689"><ele>529.4</ele></trkpt>
      <trkpt lat="-49.332919" lon="-72.914409"><ele>532.4</ele></trkpt>
      <trkpt lat="-49.332895" lon="-72.914817"><ele>532.3</ele></trkpt>
      <trkpt lat="-49.332526" lon="-72.916489"><ele>532.7</ele></trkpt>
      <trkpt lat="-49.332319" lon="-72.916796"><ele>534.7</ele></trkpt>
      <trkpt lat="-49.332081" lon="-72.917519"><ele>536.7</ele></trkpt>
      <trkpt lat="-49.331810" lon="-72.918110"><ele>538.0</ele></trkpt>
      <trkpt lat="-49.331959" lon="-72.918352"><ele>539.6</ele></trkpt>
      <trkpt lat="-49.332255" lon="-72.919568"><ele>547.7</ele></trkpt>
      <trkpt lat="-49.332382" lon="-72.919849"><ele>548.4</ele></trkpt>
      <trkpt lat="-49.332479" lon="-72.920816"><ele>547.1</ele></trkpt>
      <trkpt lat="-49.332764" lon="-72.921458"><ele>549.4</ele></trkpt>
      <trkpt lat="-49.332748" lon="-72.921931"><ele>554.9</ele></trkpt>
      <trkpt lat="-49.332619" lon="-72.922338"><ele>563.6</ele></trkpt>
      <trkpt lat="-49.332490" lon="-72.923353"><ele>585.9</ele></trkpt>
      <trkpt lat="-49.332412" lon="-72.923555"><ele>589.9</ele></trkpt>
      <trkpt lat="-49.332380" lon="-72.923920"><ele>596.1</ele></trkpt>
      <trkpt lat="-49.332432" lon="-72.924210"><ele>602.0</ele></trkpt>
      <trkpt lat="-49.332247" lon="-72.924693"><ele>611.0</ele></trkpt>
      <trkpt lat="-49.332238" lon="-72.924952"><ele>613.8</ele></trkpt>
      <trkpt lat="-49.332378" lon="-72.925086"><ele>616.3</ele></trkpt>
      <trkpt lat="-49.332589" lon="-72.925648"><ele>616.9</ele></trkpt>
      <trkpt lat="-49.332620" lon="-72.926028"><ele>618.5</ele></trkpt>
      <trkpt lat="-49.332322" lon="-72.926774"><ele>623.5</ele></trkpt>
      <trkpt lat="-49.332330" lon="-72.927004"><ele>624.2</ele></trkpt>
      <trkpt lat="-49.332463" lon="-72.927344"><ele>624.3</ele></trkpt>
      <trkpt lat="-49.332291" lon="-72.928508"><ele>607.2</ele></trkpt>
      <trkpt lat="-49.332156" lon="-72.929012"><ele>602.5</ele></trkpt>
      <trkpt lat="-49.332243" lon="-72.929235"><ele>600.0</ele></trkpt>
      <trkpt lat="-49.332227" lon="-72.929407"><ele>598.8</ele></trkpt>
      <trkpt lat="-49.332026" lon="-72.930004"><ele>592.3</ele></trkpt>
      <trkpt lat="-49.332003" lon="-72.931357"><ele>571.6</ele></trkpt>
      <trkpt lat="-49.331928" lon="-72.931528"><ele>571.3</ele></trkpt>
      <trkpt lat="-49.331776" lon="-72.931652"><ele>571.2</ele></trkpt>
      <trkpt lat="-49.331232" lon="-72.932820"><ele>575.5</ele></trkpt>
      <trkpt lat="-49.331265" lon="-72.933274"><ele>575.1</ele></trkpt>
      <trkpt lat="-49.331437" lon="-72.933496"><ele>575.3</ele></trkpt>
      <trkpt lat="-49.331778" lon="-72.934358"><ele>578.7</ele></trkpt>
      <trkpt lat="-49.332052" lon="-72.934318"><ele>580.4</ele></trkpt>
      <trkpt lat="-49.332167" lon="-72.934382"><ele>581.2</ele></trkpt>
      <trkpt lat="-49.332313" lon="-72.934742"><ele>583.4</ele></trkpt>
      <trkpt lat="-49.332273" lon="-72.935712"><ele>586.3</ele></trkpt>
      <trkpt lat="-49.332336" lon="-72.935918"><ele>585.9</ele></trkpt>
      <trkpt lat="-49.332336" lon="-72.936556"><ele>582.3</ele></trkpt>
      <trkpt lat="-49.332095" lon="-72.937930"><ele>569.6</ele></trkpt>
      <trkpt lat="-49.332132" lon="-72.939547"><ele>561.4</ele></trkpt>
      <trkpt lat="-49.332207" lon="-72.939755"><ele>560.3</ele></trkpt>
      <trkpt lat="-49.332181" lon="-72.939929"><ele>559.5</ele></trkpt>
      <trkpt lat="-49.332257" lon="-72.940310"><ele>557.9</ele></trkpt>
      <trkpt lat="-49.332226" lon="-72.940585"><ele>557.1</ele></trkpt>
      <trkpt lat="-49.332100" lon="-72.940805"><ele>556.2</ele></trkpt>
      <trkpt lat="-49.332035" lon="-72.941299"><ele>554.9</ele></trkpt>
      <trkpt lat="-49.332125" lon="-72.941618"><ele>554.3</ele></trkpt>
      <trkpt lat="-49.332067" lon="-72.941791"><ele>554.0</ele></trkpt>
      <trkpt lat="-49.331960" lon="-72.943031"><ele>552.8</ele></trkpt>
      <trkpt lat="-49.332071" lon="-72.943946"><ele>552.4</ele></trkpt>
      <trkpt lat="-49.332169" lon="-72.944032"><ele>552.4</ele></trkpt>
      <trkpt lat="-49.332216" lon="-72.944219"><ele>552.5</ele></trkpt>
      <trkpt lat="-49.332178" lon="-72.944396"><ele>552.7</ele></trkpt>
      <trkpt lat="-49.332262" lon="-72.944568"><ele>552.8</ele></trkpt>
      <trkpt lat="-49.332163" lon="-72.945537"><ele>553.6</ele></trkpt>
      <trkpt lat="-49.332010" lon="-72.945790"><ele>553.4</ele></trkpt>
      <trkpt lat="-49.331854" lon="-72.946382"><ele>552.9</ele></trkpt>
      <trkpt lat="-49.332107" lon="-72.946735"><ele>552.6</ele></trkpt>
      <trkpt lat="-49.332035" lon="-72.947576"><ele>552.7</ele></trkpt>
      <trkpt lat="-49.332256" lon="-72.948539"><ele>553.8</ele></trkpt>
      <trkpt lat="-49.332267" lon="-72.949067"><ele>554.5</ele></trkpt>
      <trkpt lat="-49.332477" lon="-72.949853"><ele>556.0</ele></trkpt>
      <trkpt lat="-49.332494" lon="-72.950356"><ele>556.7</ele></trkpt>
      <trkpt lat="-49.332549" lon="-72.950522"><ele>556.7</ele></trkpt>
      <trkpt lat="-49.332519" lon="-72.950673"><ele>556.7</ele></trkpt>
      <trkpt lat="-49.332575" lon="-72.950956"><ele>556.8</ele></trkpt>
      <trkpt lat="-49.332797" lon="-72.951432"><ele>556.9</ele></trkpt>
      <trkpt lat="-49.332819" lon="-72.952483"><ele>557.9</ele></trkpt>
      <trkpt lat="-49.333068" lon="-72.953186"><ele>559.3</ele></trkpt>
      <trkpt lat="-49.333011" lon="-72.953353"><ele>559.7</ele></trkpt>
      <trkpt lat="-49.333075" lon="-72.953425"><ele>559.9</ele></trkpt>
      <trkpt lat="-49.332986" lon="-72.953732"><ele>560.4</ele></trkpt>
      <trkpt lat="-49.333170" lon="-72.954133"><ele>561.1</ele></trkpt>
      <trkpt lat="-49.333186" lon="-72.954629"><ele>561.9</ele></trkpt>
      <trkpt lat="-49.333251" lon="-72.954726"><ele>562.1</ele></trkpt>
      <trkpt lat="-49.333190" lon="-72.954841"><ele>562.3</ele></trkpt>
      <trkpt lat="-49.333265" lon="-72.955186"><ele>563.0</ele></trkpt>
      <trkpt lat="-49.333311" lon="-72.956300"><ele>570.9</ele></trkpt>
      <trkpt lat="-49.333189" lon="-72.956907"><ele>576.5</ele></trkpt>
      <trkpt lat="-49.333338" lon="-72.957604"><ele>579.3</ele></trkpt>
      <trkpt lat="-49.333467" lon="-72.957851"><ele>579.3</ele></trkpt>
      <trkpt lat="-49.333412" lon="-72.958771"><ele>578.8</ele></trkpt>
      <trkpt lat="-49.332909" lon="-72.959705"><ele>574.2</ele></trkpt>
      <trkpt lat="-49.332198" lon="-72.960302"><ele>567.6</ele></trkpt>
      <trkpt lat="-49.332025" lon="-72.960288"><ele>567.3</ele></trkpt>
      <trkpt lat="-49.331644" lon="-72.960507"><ele>567.4</ele></trkpt>
      <trkpt lat="-49.330669" lon="-72.960569"><ele>574.4</ele></trkpt>
      <trkpt lat="-49.330055" lon="-72.961131"><ele>575.3</ele></trkpt>
      <trkpt lat="-49.329732" lon="-72.961234"><ele>577.2</ele></trkpt>
      <trkpt lat="-49.329353" lon="-72.961650"><ele>581.7</ele></trkpt>
      <trkpt lat="-49.328880" lon="-72.962454"><ele>584.2</ele></trkpt>
      <trkpt lat="-49.328474" lon="-72.962814"><ele>584.5</ele></trkpt>
      <trkpt lat="-49.328027" lon="-72.963646"><ele>597.9</ele></trkpt>
      <trkpt lat="-49.327671" lon="-72.965379"><ele>587.9</ele></trkpt>
      <trkpt lat="-49.327529" lon="-72.965618"><ele>589.3</ele></trkpt>
      <trkpt lat="-49.327521" lon="-72.965960"><ele>592.8</ele></trkpt>
      <trkpt lat="-49.327388" lon="-72.966329"><ele>599.7</ele></trkpt>
      <trkpt lat="-49.327414" lon="-72.966709"><ele>603.3</ele></trkpt>
      <trkpt lat="-49.327342" lon="-72.966951"><ele>604.6</ele></trkpt>
      <trkpt lat="-49.327286" lon="-72.968017"><ele>600.8</ele></trkpt>
      <trkpt lat="-49.327118" lon="-72.968582"><ele>599.4</ele></trkpt>
      <trkpt lat="-49.327139" lon="-72.968829"><ele>599.3</ele></trkpt>
      <trkpt lat="-49.327048" lon="-72.969158"><ele>599.6</ele></trkpt>
      <trkpt lat="-49.327206" lon="-72.970073"><ele>600.1</ele></trkpt>
      <trkpt lat="-49.327180" lon="-72.970908"><ele>597.0</ele></trkpt>
      <trkpt lat="-49.327371" lon="-72.971767"><ele>592.3</ele></trkpt>
      <trkpt lat="-49.327209" lon="-72.972677"><ele>594.0</ele></trkpt>
      <trkpt lat="-49.326906" lon="-72.972864"><ele>596.3</ele></trkpt>
      <trkpt lat="-49.326831" lon="-72.973119"><ele>597.4</ele></trkpt>
      <trkpt lat="-49.326286" lon="-72.973602"><ele>601.2</ele></trkpt>
      <trkpt lat="-49.326152" lon="-72.973916"><ele>603.1</ele></trkpt>
      <trkpt lat="-49.326096" lon="-72.974383"><ele>606.1</ele></trkpt>
      <trkpt lat="-49.326112" lon="-72.974804"><ele>608.7</ele></trkpt>
      <trkpt lat="-49.326237" lon="-72.975145"><ele>611.0</ele></trkpt>
      <trkpt lat="-49.326284" lon="-72.975849"><ele>612.2</ele></trkpt>
      <trkpt lat="-49.326238" lon="-72.976404"><ele>611.2</ele></trkpt>
      <trkpt lat="-49.326143" lon="-72.976720"><ele>610.6</ele></trkpt>
      <trkpt lat="-49.325764" lon="-72.977287"><ele>614.4</ele></trkpt>
      <trkpt lat="-49.325569" lon="-72.977737"><ele>616.5</ele></trkpt>
      <trkpt lat="-49.325270" lon="-72.978087"><ele>616.0</ele></trkpt>
      <trkpt lat="-49.325192" lon="-72.978404"><ele>615.5</ele></trkpt>
      <trkpt lat="-49.325180" lon="-72.978920"><ele>617.2</ele></trkpt>
      <trkpt lat="-49.324845" lon="-72.979799"><ele>621.3</ele></trkpt>
      <trkpt lat="-49.324832" lon="-72.980102"><ele>620.1</ele></trkpt>
      <trkpt lat="-49.325119" lon="-72.980521"><ele>616.1</ele></trkpt>
      <trkpt lat="-49.325030" lon="-72.981155"><ele>613.8</ele></trkpt>
      <trkpt lat="-49.325309" lon="-72.981883"><ele>616.6</ele></trkpt>
      <trkpt lat="-49.325608" lon="-72.982148"><ele>619.1</ele></trkpt>
      <trkpt lat="-49.325903" lon="-72.982231"><ele>623.7</ele></trkpt>
      <trkpt lat="-49.325925" lon="-72.983361"><ele>636.2</ele></trkpt>
      <trkpt lat="-49.325849" lon="-72.983649"><ele>637.8</ele></trkpt>
      <trkpt lat="-49.325877" lon="-72.984077"><ele>640.3</ele></trkpt>
      <trkpt lat="-49.325727" lon="-72.984538"><ele>645.4</ele></trkpt>
      <trkpt lat="-49.325717" lon="-72.984775"><ele>647.5</ele></trkpt>
      <trkpt lat="-49.325880" lon="-72.985783"><ele>650.4</ele></trkpt>
      <trkpt lat="-49.326070" lon="-72.986341"><ele>656.0</ele></trkpt>
      <trkpt lat="-49.326217" lon="-72.986395"><ele>658.4</ele></trkpt>
      <trkpt lat="-49.326256" lon="-72.986556"><ele>660.0</ele></trkpt>
      <trkpt lat="-49.326214" lon="-72.986941"><ele>664.2</ele></trkpt>
      <trkpt lat="-49.326267" lon="-72.987018"><ele>665.3</ele></trkpt>
      <trkpt lat="-49.326476" lon="-72.987036"><ele>668.1</ele></trkpt>
      <trkpt lat="-49.326529" lon="-72.987472"><ele>671.9</ele></trkpt>
      <trkpt lat="-49.326600" lon="-72.987615"><ele>673.3</ele></trkpt>
      <trkpt lat="-49.326922" lon="-72.987720"><ele>675.5</ele></trkpt>
      <trkpt lat="-49.327026" lon="-72.988097"><ele>675.8</ele></trkpt>
      <trkpt lat="-49.327077" lon="-72.988132"><ele>675.6</ele></trkpt>
      <trkpt lat="-49.327141" lon="-72.987995"><ele>675.0</ele></trkpt>
      <trkpt lat="-49.327336" lon="-72.988351"><ele>672.3</ele></trkpt>
      <trkpt lat="-49.327552" lon="-72.988301"><ele>670.0</ele></trkpt>
      <trkpt lat="-49.328322" lon="-72.987769"><ele>656.3</ele></trkpt>
      <trkpt lat="-49.329208" lon="-72.987875"><ele>643.5</ele></trkpt>
      <trkpt lat="-49.329599" lon="-72.988208"><ele>641.9</ele></trkpt>
      <trkpt lat="-49.330056" lon="-72.988823"><ele>638.7</ele></trkpt>
      <trkpt lat="-49.329599" lon="-72.988208"><ele>641.9</ele></trkpt>
      <trkpt lat="-49.329208" lon="-72.987875"><ele>643.5</ele></trkpt>
      <trkpt lat="-49.328322" lon="-72.987769"><ele>656.3</ele></trkpt>
      <trkpt lat="-49.327552" lon="-72.988301"><ele>670.0</ele></trkpt>
      <trkpt lat="-49.327336" lon="-72.988351"><ele>672.3</ele></trkpt>
      <trkpt lat="-49.327141" lon="-72.987995"><ele>675.0</ele></trkpt>
      <trkpt lat="-49.327077" lon="-72.988132"><ele>675.6</ele></trkpt>
      <trkpt lat="-49.327026" lon="-72.988097"><ele>675.8</ele></trkpt>
      <trkpt lat="-49.326922" lon="-72.987720"><ele>675.5</ele></trkpt>
      <trkpt lat="-49.326600" lon="-72.987615"><ele>673.3</ele></trkpt>
      <trkpt lat="-49.326529" lon="-72.987472"><ele>671.9</ele></trkpt>
      <trkpt lat="-49.326476" lon="-72.987036"><ele>668.1</ele></trkpt>
      <trkpt lat="-49.326267" lon="-72.987018"><ele>665.3</ele></trkpt>
      <trkpt lat="-49.326214" lon="-72.986941"><ele>664.2</ele></trkpt>
      <trkpt lat="-49.326256" lon="-72.986556"><ele>660.0</ele></trkpt>
      <trkpt lat="-49.326217" lon="-72.986395"><ele>658.4</ele></trkpt>
      <trkpt lat="-49.326070" lon="-72.986341"><ele>656.0</ele></trkpt>
      <trkpt lat="-49.325880" lon="-72.985783"><ele>650.4</ele></trkpt>
      <trkpt lat="-49.325717" lon="-72.984775"><ele>647.5</ele></trkpt>
      <trkpt lat="-49.325727" lon="-72.984538"><ele>645.4</ele></trkpt>
      <trkpt lat="-49.325877" lon="-72.984077"><ele>640.3</ele></trkpt>
      <trkpt lat="-49.325849" lon="-72.983649"><ele>637.8</ele></trkpt>
      <trkpt lat="-49.325925" lon="-72.983361"><ele>636.2</ele></trkpt>
      <trkpt lat="-49.325903" lon="-72.982231"><ele>623.7</ele></trkpt>
      <trkpt lat="-49.325608" lon="-72.982148"><ele>619.1</ele></trkpt>
      <trkpt lat="-49.325309" lon="-72.981883"><ele>616.6</ele></trkpt>
      <trkpt lat="-49.325030" lon="-72.981155"><ele>613.8</ele></trkpt>
      <trkpt lat="-49.325119" lon="-72.980521"><ele>616.1</ele></trkpt>
      <trkpt lat="-49.324832" lon="-72.980102"><ele>620.1</ele></trkpt>
      <trkpt lat="-49.324845" lon="-72.979799"><ele>621.3</ele></trkpt>
      <trkpt lat="-49.325180" lon="-72.978920"><ele>617.2</ele></trkpt>
      <trkpt lat="-49.325192" lon="-72.978404"><ele>615.5</ele></trkpt>
      <trkpt lat="-49.325270" lon="-72.978087"><ele>616.0</ele></trkpt>
      <trkpt lat="-49.325569" lon="-72.977737"><ele>616.5</ele></trkpt>
      <trkpt lat="-49.325764" lon="-72.977287"><ele>614.4</ele></trkpt>
      <trkpt lat="-49.326143" lon="-72.976720"><ele>610.6</ele></trkpt>
      <trkpt lat="-49.326238" lon="-72.976404"><ele>611.2</ele></trkpt>
      <trkpt lat="-49.326284" lon="-72.975849"><ele>612.2</ele></trkpt>
      <trkpt lat="-49.326237" lon="-72.975145"><ele>611.0</ele></trkpt>
      <trkpt lat="-49.326112" lon="-72.974804"><ele>608.7</ele></trkpt>
      <trkpt lat="-49.326096" lon="-72.974383"><ele>606.1</ele></trkpt>
      <trkpt lat="-49.326152" lon="-72.973916"><ele>603.1</ele></trkpt>
      <trkpt lat="-49.326286" lon="-72.973602"><ele>601.2</ele></trkpt>
      <trkpt lat="-49.326831" lon="-72.973119"><ele>597.4</ele></trkpt>
      <trkpt lat="-49.326906" lon="-72.972864"><ele>596.3</ele></trkpt>
      <trkpt lat="-49.327209" lon="-72.972677"><ele>594.0</ele></trkpt>
      <trkpt lat="-49.327371" lon="-72.971767"><ele>592.3</ele></trkpt>
      <trkpt lat="-49.327180" lon="-72.970908"><ele>597.0</ele></trkpt>
      <trkpt lat="-49.327206" lon="-72.970073"><ele>600.1</ele></trkpt>
      <trkpt lat="-49.327048" lon="-72.969158"><ele>599.6</ele></trkpt>
      <trkpt lat="-49.327139" lon="-72.968829"><ele>599.3</ele></trkpt>
      <trkpt lat="-49.327118" lon="-72.968582"><ele>599.4</ele></trkpt>
      <trkpt lat="-49.327286" lon="-72.968017"><ele>600.8</ele></trkpt>
      <trkpt lat="-49.327342" lon="-72.966951"><ele>604.6</ele></trkpt>
      <trkpt lat="-49.327414" lon="-72.966709"><ele>603.3</ele></trkpt>
      <trkpt lat="-49.327388" lon="-72.966329"><ele>599.7</ele></trkpt>
      <trkpt lat="-49.327521" lon="-72.965960"><ele>592.8</ele></trkpt>
      <trkpt lat="-49.327529" lon="-72.965618"><ele>589.3</ele></trkpt>
      <trkpt lat="-49.327671" lon="-72.965379"><ele>587.9</ele></trkpt>
      <trkpt lat="-49.328027" lon="-72.963646"><ele>597.9</ele></trkpt>
      <trkpt lat="-49.328474" lon="-72.962814"><ele>584.5</ele></trkpt>
      <trkpt lat="-49.328880" lon="-72.962454"><ele>584.2</ele></trkpt>
      <trkpt lat="-49.329353" lon="-72.961650"><ele>581.7</ele></trkpt>
      <trkpt lat="-49.329732" lon="-72.961234"><ele>577.2</ele></trkpt>
      <trkpt lat="-49.330055" lon="-72.961131"><ele>575.3</ele></trkpt>
      <trkpt lat="-49.330669" lon="-72.960569"><ele>574.4</ele></trkpt>
      <trkpt lat="-49.331644" lon="-72.960507"><ele>567.4</ele></trkpt>
      <trkpt lat="-49.332025" lon="-72.960288"><ele>567.3</ele></trkpt>
      <trkpt lat="-49.332198" lon="-72.960302"><ele>567.6</ele></trkpt>
      <trkpt lat="-49.332909" lon="-72.959705"><ele>574.2</ele></trkpt>
      <trkpt lat="-49.333412" lon="-72.958771"><ele>578.8</ele></trkpt>
      <trkpt lat="-49.333467" lon="-72.957851"><ele>579.3</ele></trkpt>
      <trkpt lat="-49.333338" lon="-72.957604"><ele>579.3</ele></trkpt>
      <trkpt lat="-49.333189" lon="-72.956907"><ele>576.5</ele></trkpt>
      <trkpt lat="-49.333311" lon="-72.956300"><ele>570.9</ele></trkpt>
      <trkpt lat="-49.333265" lon="-72.955186"><ele>563.0</ele></trkpt>
      <trkpt lat="-49.333190" lon="-72.954841"><ele>562.3</ele></trkpt>
      <trkpt lat="-49.333251" lon="-72.954726"><ele>562.1</ele></trkpt>
      <trkpt lat="-49.333186" lon="-72.954629"><ele>561.9</ele></trkpt>
      <trkpt lat="-49.333170" lon="-72.954133"><ele>561.1</ele></trkpt>
      <trkpt lat="-49.332986" lon="-72.953732"><ele>560.4</ele></trkpt>
      <trkpt lat="-49.333075" lon="-72.953425"><ele>559.9</ele></trkpt>
      <trkpt lat="-49.333011" lon="-72.953353"><ele>559.7</ele></trkpt>
      <trkpt lat="-49.333068" lon="-72.953186"><ele>559.3</ele></trkpt>
      <trkpt lat="-49.332819" lon="-72.952483"><ele>557.9</ele></trkpt>
      <trkpt lat="-49.332797" lon="-72.951432"><ele>556.9</ele></trkpt>
      <trkpt lat="-49.332575" lon="-72.950956"><ele>556.8</ele></trkpt>
      <trkpt lat="-49.332519" lon="-72.950673"><ele>556.7</ele></trkpt>
      <trkpt lat="-49.332549" lon="-72.950522"><ele>556.7</ele></trkpt>
      <trkpt lat="-49.332494" lon="-72.950356"><ele>556.7</ele></trkpt>
      <trkpt lat="-49.332477" lon="-72.949853"><ele>556.0</ele></trkpt>
      <trkpt lat="-49.332267" lon="-72.949067"><ele>554.5</ele></trkpt>
      <trkpt lat="-49.332256" lon="-72.948539"><ele>553.8</ele></trkpt>
      <trkpt lat="-49.332035" lon="-72.947576"><ele>552.7</ele></trkpt>
      <trkpt lat="-49.332107" lon="-72.946735"><ele>552.6</ele></trkpt>
      <trkpt lat="-49.331854" lon="-72.946382"><ele>552.9</ele></trkpt>
      <trkpt lat="-49.332010" lon="-72.945790"><ele>553.4</ele></trkpt>
      <trkpt lat="-49.332163" lon="-72.945537"><ele>553.6</ele></trkpt>
      <trkpt lat="-49.332262" lon="-72.944568"><ele>552.8</ele></trkpt>
      <trkpt lat="-49.332178" lon="-72.944396"><ele>552.7</ele></trkpt>
      <trkpt lat="-49.332216" lon="-72.944219"><ele>552.5</ele></trkpt>
      <trkpt lat="-49.332169" lon="-72.944032"><ele>552.4</ele></trkpt>
      <trkpt lat="-49.332071" lon="-72.943946"><ele>552.4</ele></trkpt>
      <trkpt lat="-49.331960" lon="-72.943031"><ele>552.8</ele></trkpt>
      <trkpt lat="-49.332067" lon="-72.941791"><ele>554.0</ele></trkpt>
      <trkpt lat="-49.332125" lon="-72.941618"><ele>554.3</ele></trkpt>
      <trkpt lat="-49.332035" lon="-72.941299"><ele>554.9</ele></trkpt>
      <trkpt lat="-49.332100" lon="-72.940805"><ele>556.2</ele></trkpt>
      <trkpt lat="-49.332226" lon="-72.940585"><ele>557.1</ele></trkpt>
      <trkpt lat="-49.332257" lon="-72.940310"><ele>557.9</ele></trkpt>
      <trkpt lat="-49.332181" lon="-72.939929"><ele>559.5</ele></trkpt>
      <trkpt lat="-49.332207" lon="-72.939755"><ele>560.3</ele></trkpt>
      <trkpt lat="-49.332132" lon="-72.939547"><ele>561.4</ele></trkpt>
      <trkpt lat="-49.332095" lon="-72.937930"><ele>569.6</ele></trkpt>
      <trkpt lat="-49.332336" lon="-72.936556"><ele>582.3</ele></trkpt>
      <trkpt lat="-49.332336" lon="-72.935918"><ele>585.9</ele></trkpt>
      <trkpt lat="-49.332273" lon="-72.935712"><ele>586.3</ele></trkpt>
      <trkpt lat="-49.332313" lon="-72.934742"><ele>583.4</ele></trkpt>
      <trkpt lat="-49.332167" lon="-72.934382"><ele>581.2</ele></trkpt>
      <trkpt lat="-49.332052" lon="-72.934318"><ele>580.4</ele></trkpt>
      <trkpt lat="-49.331778" lon="-72.934358"><ele>578.7</ele></trkpt>
      <trkpt lat="-49.331437" lon="-72.933496"><ele>575.3</ele></trkpt>
      <trkpt lat="-49.331265" lon="-72.933274"><ele>575.1</ele></trkpt>
      <trkpt lat="-49.331232" lon="-72.932820"><ele>575.5</ele></trkpt>
      <trkpt lat="-49.331776" lon="-72.931652"><ele>571.2</ele></trkpt>
      <trkpt lat="-49.331928" lon="-72.931528"><ele>571.3</ele></trkpt>
      <trkpt lat="-49.332003" lon="-72.931357"><ele>571.6</ele></trkpt>
      <trkpt lat="-49.332026" lon="-72.930004"><ele>592.3</ele></trkpt>
      <trkpt lat="-49.332227" lon="-72.929407"><ele>598.8</ele></trkpt>
      <trkpt lat="-49.332243" lon="-72.929235"><ele>600.0</ele></trkpt>
      <trkpt lat="-49.332156" lon="-72.929012"><ele>602.5</ele></trkpt>
      <trkpt lat="-49.332291" lon="-72.928508"><ele>607.2</ele></trkpt>
      <trkpt lat="-49.332463" lon="-72.927344"><ele>624.3</ele></trkpt>
      <trkpt lat="-49.332330" lon="-72.927004"><ele>624.2</ele></trkpt>
      <trkpt lat="-49.332322" lon="-72.926774"><ele>623.5</ele></trkpt>
      <trkpt lat="-49.332620" lon="-72.926028"><ele>618.5</ele></trkpt>
      <trkpt lat="-49.332589" lon="-72.925648"><ele>616.9</ele></trkpt>
      <trkpt lat="-49.332378" lon="-72.925086"><ele>616.3</ele></trkpt>
      <trkpt lat="-49.332238" lon="-72.924952"><ele>613.8</ele></trkpt>
      <trkpt lat="-49.332247" lon="-72.924693"><ele>611.0</ele></trkpt>
      <trkpt lat="-49.332432" lon="-72.924210"><ele>602.0</ele></trkpt>
      <trkpt lat="-49.332380" lon="-72.923920"><ele>596.1</ele></trkpt>
      <trkpt lat="-49.332412" lon="-72.923555"><ele>589.9</ele></trkpt>
      <trkpt lat="-49.332490" lon="-72.923353"><ele>585.9</ele></trkpt>
      <trkpt lat="-49.332619" lon="-72.922338"><ele>563.6</ele></trkpt>
      <trkpt lat="-49.332748" lon="-72.921931"><ele>554.9</ele></trkpt>
      <trkpt lat="-49.332764" lon="-72.921458"><ele>549.4</ele></trkpt>
      <trkpt lat="-49.332479" lon="-72.920816"><ele>547.1</ele></trkpt>
      <trkpt lat="-49.332382" lon="-72.919849"><ele>548.4</ele></trkpt>
      <trkpt lat="-49.332255" lon="-72.919568"><ele>547.7</ele></trkpt>
      <trkpt lat="-49.331959" lon="-72.918352"><ele>539.6</ele></trkpt>
      <trkpt lat="-49.331810" lon="-72.918110"><ele>538.0</ele></trkpt>
      <trkpt lat="-49.332081" lon="-72.917519"><ele>536.7</ele></trkpt>
      <trkpt lat="-49.332319" lon="-72.916796"><ele>534.7</ele></trkpt>
      <trkpt lat="-49.332526" lon="-72.916489"><ele>532.7</ele></trkpt>
      <trkpt lat="-49.332895" lon="-72.914817"><ele>532.3</ele></trkpt>
      <trkpt lat="-49.332919" lon="-72.914409"><ele>532.4</ele></trkpt>
      <trkpt lat="-49.333202" lon="-72.913689"><ele>529.4</ele></trkpt>
      <trkpt lat="-49.333370" lon="-72.913528"><ele>527.3</ele></trkpt>
      <trkpt lat="-49.333958" lon="-72.912575"><ele>534.2</ele></trkpt>
      <trkpt lat="-49.334002" lon="-72.911582"><ele>546.5</ele></trkpt>
      <trkpt lat="-49.333691" lon="-72.910687"><ele>542.5</ele></trkpt>
      <trkpt lat="-49.333694" lon="-72.909907"><ele>530.5</ele></trkpt>
      <trkpt lat="-49.333631" lon="-72.909562"><ele>525.3</ele></trkpt>
      <trkpt lat="-49.333700" lon="-72.909429"><ele>523.1</ele></trkpt>
      <trkpt lat="-49.333644" lon="-72.909304"><ele>521.1</ele></trkpt>
      <trkpt lat="-49.333885" lon="-72.908720"><ele>512.5</ele></trkpt>
      <trkpt lat="-49.333894" lon="-72.908531"><ele>509.9</ele></trkpt>
      <trkpt lat="-49.334391" lon="-72.908118"><ele>499.1</ele></trkpt>
      <trkpt lat="-49.334531" lon="-72.908151"><ele>497.6</ele></trkpt>
      <trkpt lat="-49.334639" lon="-72.907747"><ele>496.1</ele></trkpt>
      <trkpt lat="-49.334792" lon="-72.907462"><ele>496.0</ele></trkpt>
      <trkpt lat="-49.334971" lon="-72.907314"><ele>495.4</ele></trkpt>
      <trkpt lat="-49.335244" lon="-72.906885"><ele>494.1</ele></trkpt>
      <trkpt lat="-49.335342" lon="-72.906625"><ele>495.0</ele></trkpt>
      <trkpt lat="-49.335348" lon="-72.906231"><ele>497.0</ele></trkpt>
      <trkpt lat="-49.335640" lon="-72.905202"><ele>499.6</ele></trkpt>
      <trkpt lat="-49.335992" lon="-72.904664"><ele>497.2</ele></trkpt>
      <trkpt lat="-49.336100" lon="-72.904349"><ele>497.3</ele></trkpt>
      <trkpt lat="-49.336061" lon="-72.903818"><ele>498.9</ele></trkpt>
      <trkpt lat="-49.335957" lon="-72.903708"><ele>499.2</ele></trkpt>
      <trkpt lat="-49.336118" lon="-72.903691"><ele>499.5</ele></trkpt>
      <trkpt lat="-49.336066" lon="-72.903555"><ele>499.5</ele></trkpt>
      <trkpt lat="-49.336192" lon="-72.902961"><ele>497.5</ele></trkpt>
      <trkpt lat="-49.336171" lon="-72.902795"><ele>496.9</ele></trkpt>
      <trkpt lat="-49.335660" lon="-72.901630"><ele>483.6</ele></trkpt>
      <trkpt lat="-49.335480" lon="-72.901416"><ele>480.7</ele></trkpt>
      <trkpt lat="-49.334874" lon="-72.901054"><ele>469.8</ele></trkpt>
      <trkpt lat="-49.334690" lon="-72.900815"><ele>464.0</ele></trkpt>
      <trkpt lat="-49.334661" lon="-72.900639"><ele>462.3</ele></trkpt>
      <trkpt lat="-49.334483" lon="-72.900504"><ele>460.6</ele></trkpt>
      <trkpt lat="-49.334325" lon="-72.900132"><ele>460.4</ele></trkpt>
      <trkpt lat="-49.334190" lon="-72.900074"><ele>461.1</ele></trkpt>
      <trkpt lat="-49.334000" lon="-72.899753"><ele>462.5</ele></trkpt>
      <trkpt lat="-49.333592" lon="-72.899450"><ele>464.1</ele></trkpt>
      <trkpt lat="-49.333536" lon="-72.899304"><ele>464.4</ele></trkpt>
      <trkpt lat="-49.333068" lon="-72.899046"><ele>465.6</ele></trkpt>
      <trkpt lat="-49.333018" lon="-72.898777"><ele>465.3</ele></trkpt>
      <trkpt lat="-49.332285" lon="-72.897908"><ele>455.1</ele></trkpt>
      <trkpt lat="-49.331971" lon="-72.897246"><ele>451.9</ele></trkpt>
      <trkpt lat="-49.331747" lon="-72.896525"><ele>450.8</ele></trkpt>
      <trkpt lat="-49.331752" lon="-72.895959"><ele>446.7</ele></trkpt>
      <trkpt lat="-49.331381" lon="-72.895220"><ele>430.2</ele></trkpt>
      <trkpt lat="-49.331276" lon="-72.894678"><ele>421.8</ele></trkpt>
    </trkseg>
  </trk>
</gpx>
