<?xml version="1.0" encoding="UTF-8"?><gpx creator="Wikiloc - https://www.wikiloc.com" version="1.1" xmlns="http://www.topografix.com/GPX/1/1" xmlns:xsi="http://www.w3.org/2001/XMLSchema-instance" xsi:schemaLocation="http://www.topografix.com/GPX/1/1 http://www.topografix.com/GPX/1/1/gpx.xsd"><metadata><name>Wikiloc - French Valley Torres del Paine Map</name><author><name>Howlanders.com</name><link href="https://www.wikiloc.com/wikiloc/user.do?id=9878293"><text>Howlanders.com on Wikiloc</text></link></author><link href="https://www.wikiloc.com/hiking-trails/french-valley-torres-del-paine-map-88478477"><text>French Valley Torres del Paine Map on Wikiloc</text></link><time>2021-11-09T11:32:51.985Z</time></metadata><wpt lat="-51.008189" lon="-73.053154"><ele>486.0</ele><time>2021-11-09T11:23:57Z</time><name>French Valley Viewpoint</name><cmt></cmt><desc></desc></wpt><wpt lat="-51.061331" lon="-72.990538"><ele>47.3</ele><time>2021-11-09T11:23:57Z</time><name>Pudeto Sector</name><cmt></cmt><desc></desc></wpt><wpt lat="-51.072560" lon="-73.094044"><ele>40.7</ele><time>2021-11-09T11:23:57Z</time><name>Paine Grande lodge</name><cmt></cmt><desc></desc></wpt><wpt lat="-51.000369" lon="-73.096953"><ele>2572.0</ele><time>2021-11-09T11:23:57Z</time><name>Mount Paine Grande</name><cmt></cmt><desc></desc></wpt><trk><name>French Valley Torres del Paine Map - Wikiloc</name><cmt></cmt><desc>Trimmed to the walking section: Paine Grande catamaran landing to Mirador Valle del Francés and back. The Pudeto-Paine Grande catamaran crossing (about 10.5 km each way) was removed from the original track.</desc><trkseg><trkpt lat="-51.073760" lon="-73.092848"><ele>45.454</ele><time>2021-11-09T12:03:19Z</time></trkpt><trkpt lat="-51.072720" lon="-73.093086"><ele>39.844</ele><time>2021-11-09T12:03:59Z</time></trkpt><trkpt lat="-51.071476" lon="-73.092577"><ele>43.559</ele><time>2021-11-09T12:04:39Z</time></trkpt><trkpt lat="-51.071052" lon="-73.089187"><ele>40.003</ele><time>2021-11-09T12:05:19Z</time></trkpt><trkpt lat="-51.070775" lon="-73.087407"><ele>48.223</ele><time>2021-11-09T12:05:59Z</time></trkpt><trkpt lat="-51.070742" lon="-73.086495"><ele>51.908</ele><time>2021-11-09T12:06:39Z</time></trkpt><trkpt lat="-51.070647" lon="-73.085680"><ele>55.273</ele><time>2021-11-09T12:07:19Z</time></trkpt><trkpt lat="-51.069761" lon="-73.082682"><ele>79.063</ele><time>2021-11-09T12:07:59Z</time></trkpt><trkpt lat="-51.069278" lon="-73.079455"><ele>114.449</ele><time>2021-11-09T12:08:39Z</time></trkpt><trkpt lat="-51.068789" lon="-73.076107"><ele>146.972</ele><time>2021-11-09T12:09:19Z</time></trkpt><trkpt lat="-51.067913" lon="-73.074101"><ele>126.323</ele><time>2021-11-09T12:09:59Z</time></trkpt><trkpt lat="-51.066075" lon="-73.075987"><ele>128.379</ele><time>2021-11-09T12:10:39Z</time></trkpt><trkpt lat="-51.063843" lon="-73.076218"><ele>146.542</ele><time>2021-11-09T12:11:19Z</time></trkpt><trkpt lat="-51.061708" lon="-73.075202"><ele>132.452</ele><time>2021-11-09T12:11:59Z</time></trkpt><trkpt lat="-51.059478" lon="-73.074956"><ele>106.982</ele><time>2021-11-09T12:12:39Z</time></trkpt><trkpt lat="-51.057277" lon="-73.075667"><ele>92.443</ele><time>2021-11-09T12:13:19Z</time></trkpt><trkpt lat="-51.055188" lon="-73.074766"><ele>114.417</ele><time>2021-11-09T12:13:59Z</time></trkpt><trkpt lat="-51.053017" lon="-73.073812"><ele>110.408</ele><time>2021-11-09T12:14:39Z</time></trkpt><trkpt lat="-51.050829" lon="-73.074270"><ele>113.086</ele><time>2021-11-09T12:15:19Z</time></trkpt><trkpt lat="-51.049157" lon="-73.073562"><ele>95.256</ele><time>2021-11-09T12:15:59Z</time></trkpt><trkpt lat="-51.047433" lon="-73.071390"><ele>92.782</ele><time>2021-11-09T12:16:39Z</time></trkpt><trkpt lat="-51.045451" lon="-73.070060"><ele>91.835</ele><time>2021-11-09T12:17:19Z</time></trkpt><trkpt lat="-51.043727" lon="-73.067889"><ele>92.826</ele><time>2021-11-09T12:17:59Z</time></trkpt><trkpt lat="-51.042217" lon="-73.065378"><ele>93.172</ele><time>2021-11-09T12:18:39Z</time></trkpt><trkpt lat="-51.040970" lon="-73.062549"><ele>102.065</ele><time>2021-11-09T12:19:19Z</time></trkpt><trkpt lat="-51.039312" lon="-73.060790"><ele>126.395</ele><time>2021-11-09T12:19:59Z</time></trkpt><trkpt lat="-51.038342" lon="-73.059319"><ele>119.896</ele><time>2021-11-09T12:20:39Z</time></trkpt><trkpt lat="-51.037358" lon="-73.057023"><ele>113.831</ele><time>2021-11-09T12:21:19Z</time></trkpt><trkpt lat="-51.035973" lon="-73.054417"><ele>121.324</ele><time>2021-11-09T12:21:59Z</time></trkpt><trkpt lat="-51.034624" lon="-73.052143"><ele>138.708</ele><time>2021-11-09T12:22:39Z</time></trkpt><trkpt lat="-51.033226" lon="-73.049718"><ele>131.357</ele><time>2021-11-09T12:23:19Z</time></trkpt><trkpt lat="-51.031726" lon="-73.047902"><ele>138.597</ele><time>2021-11-09T12:23:59Z</time></trkpt><trkpt lat="-51.030040" lon="-73.046486"><ele>146.113</ele><time>2021-11-09T12:24:39Z</time></trkpt><trkpt lat="-51.028287" lon="-73.044855"><ele>165.436</ele><time>2021-11-09T12:25:19Z</time></trkpt><trkpt lat="-51.026466" lon="-73.043482"><ele>165.647</ele><time>2021-11-09T12:25:59Z</time></trkpt><trkpt lat="-51.024986" lon="-73.041327"><ele>167.283</ele><time>2021-11-09T12:26:39Z</time></trkpt><trkpt lat="-51.022882" lon="-73.042336"><ele>184.316</ele><time>2021-11-09T12:27:19Z</time></trkpt><trkpt lat="-51.021600" lon="-73.043580"><ele>201.326</ele><time>2021-11-09T12:27:59Z</time></trkpt><trkpt lat="-51.019788" lon="-73.045451"><ele>232.093</ele><time>2021-11-09T12:28:39Z</time></trkpt><trkpt lat="-51.017636" lon="-73.046507"><ele>267.565</ele><time>2021-11-09T12:29:19Z</time></trkpt><trkpt lat="-51.016111" lon="-73.047129"><ele>306.221</ele><time>2021-11-09T12:29:59Z</time></trkpt><trkpt lat="-51.014125" lon="-73.048710"><ele>361.708</ele><time>2021-11-09T12:30:39Z</time></trkpt><trkpt lat="-51.012250" lon="-73.050705"><ele>392.877</ele><time>2021-11-09T12:31:19Z</time></trkpt><trkpt lat="-51.010296" lon="-73.052073"><ele>437.567</ele><time>2021-11-09T12:31:59Z</time></trkpt><trkpt lat="-51.008175" lon="-73.053156"><ele>486.213</ele><time>2021-11-09T12:32:39Z</time></trkpt><trkpt lat="-51.010266" lon="-73.052085"><ele>438.136</ele><time>2021-11-09T12:33:19Z</time></trkpt><trkpt lat="-51.012277" lon="-73.050696"><ele>392.127</ele><time>2021-11-09T12:33:59Z</time></trkpt><trkpt lat="-51.014130" lon="-73.048720"><ele>361.473</ele><time>2021-11-09T12:34:39Z</time></trkpt><trkpt lat="-51.016107" lon="-73.047152"><ele>306.076</ele><time>2021-11-09T12:35:19Z</time></trkpt><trkpt lat="-51.018251" lon="-73.046227"><ele>255.826</ele><time>2021-11-09T12:35:59Z</time></trkpt><trkpt lat="-51.019775" lon="-73.045486"><ele>231.885</ele><time>2021-11-09T12:36:39Z</time></trkpt><trkpt lat="-51.021623" lon="-73.043556"><ele>200.889</ele><time>2021-11-09T12:37:19Z</time></trkpt><trkpt lat="-51.022870" lon="-73.042320"><ele>184.617</ele><time>2021-11-09T12:37:59Z</time></trkpt><trkpt lat="-51.024966" lon="-73.041342"><ele>167.308</ele><time>2021-11-09T12:38:39Z</time></trkpt><trkpt lat="-51.026445" lon="-73.043490"><ele>165.796</ele><time>2021-11-09T12:39:19Z</time></trkpt><trkpt lat="-51.028457" lon="-73.045056"><ele>163.396</ele><time>2021-11-09T12:39:59Z</time></trkpt><trkpt lat="-51.030365" lon="-73.046794"><ele>145.262</ele><time>2021-11-09T12:40:39Z</time></trkpt><trkpt lat="-51.032266" lon="-73.048621"><ele>135.595</ele><time>2021-11-09T12:41:19Z</time></trkpt><trkpt lat="-51.033934" lon="-73.051010"><ele>135.566</ele><time>2021-11-09T12:41:59Z</time></trkpt><trkpt lat="-51.035473" lon="-73.053594"><ele>129.222</ele><time>2021-11-09T12:42:39Z</time></trkpt><trkpt lat="-51.036948" lon="-73.056280"><ele>115.235</ele><time>2021-11-09T12:43:19Z</time></trkpt><trkpt lat="-51.038245" lon="-73.059148"><ele>119.415</ele><time>2021-11-09T12:43:59Z</time></trkpt><trkpt lat="-51.039290" lon="-73.060789"><ele>126.556</ele><time>2021-11-09T12:44:39Z</time></trkpt><trkpt lat="-51.040977" lon="-73.062548"><ele>101.959</ele><time>2021-11-09T12:45:19Z</time></trkpt><trkpt lat="-51.042232" lon="-73.065473"><ele>93.314</ele><time>2021-11-09T12:45:59Z</time></trkpt><trkpt lat="-51.043793" lon="-73.067997"><ele>93.008</ele><time>2021-11-09T12:46:39Z</time></trkpt><trkpt lat="-51.045417" lon="-73.070046"><ele>91.913</ele><time>2021-11-09T12:47:19Z</time></trkpt><trkpt lat="-51.047409" lon="-73.071412"><ele>93.423</ele><time>2021-11-09T12:47:59Z</time></trkpt><trkpt lat="-51.049121" lon="-73.073568"><ele>96.019</ele><time>2021-11-09T12:48:39Z</time></trkpt><trkpt lat="-51.050806" lon="-73.074296"><ele>113.872</ele><time>2021-11-09T12:49:19Z</time></trkpt><trkpt lat="-51.052990" lon="-73.073824"><ele>110.833</ele><time>2021-11-09T12:49:59Z</time></trkpt><trkpt lat="-51.055132" lon="-73.074740"><ele>115.269</ele><time>2021-11-09T12:50:39Z</time></trkpt><trkpt lat="-51.057242" lon="-73.075695"><ele>92.942</ele><time>2021-11-09T12:51:19Z</time></trkpt><trkpt lat="-51.059437" lon="-73.074984"><ele>107.042</ele><time>2021-11-09T12:51:59Z</time></trkpt><trkpt lat="-51.061652" lon="-73.075211"><ele>132.488</ele><time>2021-11-09T12:52:39Z</time></trkpt><trkpt lat="-51.063783" lon="-73.076207"><ele>146.624</ele><time>2021-11-09T12:53:19Z</time></trkpt><trkpt lat="-51.065994" lon="-73.076008"><ele>128.426</ele><time>2021-11-09T12:53:59Z</time></trkpt><trkpt lat="-51.067876" lon="-73.074136"><ele>125.108</ele><time>2021-11-09T12:54:39Z</time></trkpt><trkpt lat="-51.068746" lon="-73.076089"><ele>146.066</ele><time>2021-11-09T12:55:19Z</time></trkpt><trkpt lat="-51.069290" lon="-73.079557"><ele>113.136</ele><time>2021-11-09T12:55:59Z</time></trkpt><trkpt lat="-51.069761" lon="-73.082668"><ele>79.092</ele><time>2021-11-09T12:56:39Z</time></trkpt><trkpt lat="-51.070636" lon="-73.085693"><ele>55.555</ele><time>2021-11-09T12:57:19Z</time></trkpt><trkpt lat="-51.070757" lon="-73.087441"><ele>48.796</ele><time>2021-11-09T12:57:59Z</time></trkpt><trkpt lat="-51.071175" lon="-73.090316"><ele>39.922</ele><time>2021-11-09T12:58:39Z</time></trkpt><trkpt lat="-51.071455" lon="-73.092576"><ele>43.515</ele><time>2021-11-09T12:59:19Z</time></trkpt><trkpt lat="-51.072715" lon="-73.093102"><ele>39.815</ele><time>2021-11-09T12:59:59Z</time></trkpt><trkpt lat="-51.073408" lon="-73.093357"><ele>44.567</ele><time>2021-11-09T13:00:39Z</time></trkpt><trkpt lat="-51.073759" lon="-73.092885"><ele>46.181</ele><time>2021-11-09T13:01:19Z</time></trkpt></trkseg></trk></gpx>